{
  "norad_id": 66973,
  "name": "STARLINK-35778",
  "history": [
    {
      "epoch": "2026-03-28T12:52:45.486048",
      "apogee_km": 483.99162920993876,
      "perigee_km": 482.0053304885223,
      "latitude_deg": 38.439670497024004,
      "longitude_deg": -151.18279327987693,
      "semi_major_axis_km": 6861.13547984923,
      "eccentricity": 0.00014475,
      "inclination_deg": 43.0001,
      "raan_deg": 276.6816,
      "arg_perigee_deg": 268.5514,
      "mean_anomaly_deg": 91.5172,
      "mean_motion_rev_day": 15.27596904
    }
  ]
}